O3B MPOWER F1           
1 54755U 22174A   24088.34105687 -.00000016  00000+0  00000+0 0  9994
2 54755   0.0653   5.0013 0006578   9.8667 264.7043  5.00114890 24799
